[{"OBJECT_NAME":"GOES 1 (SMS-C)","OBJECT_ID":"1975-100A","EPOCH":"2026-03-07T11:10:38.474112","MEAN_MOTION":1.00238048,"ECCENTRICITY":0.00053862,"INCLINATION":4.8668,"RA_OF_ASC_NODE":278.714,"ARG_OF_PERICENTER":0.2877,"MEAN_ANOMALY":292.8035,"EPHEMERIS_TYPE":0,"CLASSIFICATION_TYPE":"U","NORAD_CAT_ID":8366,"ELEMENT_SET_NO":999,"REV_AT_EPOCH":18404,"BSTAR":0,"MEAN_MOTION_DOT":1.3e-7,"MEAN_MOTION_DDOT":0},{"OBJECT_NAME":"GOES 2","OBJECT_ID":"1977-048A","EPOCH":"2026-03-07T14:05:38.736096","MEAN_MOTION":0.99395672,"ECCENTRICITY":0.00139073,"INCLINATION":6.6616,"RA_OF_ASC_NODE":294.1954,"ARG_OF_PERICENTER":47.9051,"MEAN_ANOMALY":140.201,"EPHEMERIS_TYPE":0,"CLASSIFICATION_TYPE":"U","NORAD_CAT_ID":10061,"ELEMENT_SET_NO":999,"REV_AT_EPOCH":4526,"BSTAR":0,"MEAN_MOTION_DOT":-1.82e-6,"MEAN_MOTION_DDOT":0},{"OBJECT_NAME":"GOES 3","OBJECT_ID":"1978-062A","EPOCH":"2026-03-06T14:50:25.476288","MEAN_MOTION":0.99365874,"ECCENTRICITY":0.00027097,"INCLINATION":7.1339,"RA_OF_ASC_NODE":300.0337,"ARG_OF_PERICENTER":356.3745,"MEAN_ANOMALY":241.7626,"EPHEMERIS_TYPE":0,"CLASSIFICATION_TYPE":"U","NORAD_CAT_ID":10953,"ELEMENT_SET_NO":999,"REV_AT_EPOCH":12751,"BSTAR":0,"MEAN_MOTION_DOT":-3.03e-6,"MEAN_MOTION_DDOT":0},{"OBJECT_NAME":"GOES 4","OBJECT_ID":"1980-074A","EPOCH":"2026-03-06T23:56:03.405696","MEAN_MOTION":0.99230101,"ECCENTRICITY":0.00321373,"INCLINATION":8.2066,"RA_OF_ASC_NODE":303.7135,"ARG_OF_PERICENTER":103.0985,"MEAN_ANOMALY":54.8046,"EPHEMERIS_TYPE":0,"CLASSIFICATION_TYPE":"U","NORAD_CAT_ID":11964,"ELEMENT_SET_NO":999,"REV_AT_EPOCH":12642,"BSTAR":0,"MEAN_MOTION_DOT":-1.94e-6,"MEAN_MOTION_DDOT":0},{"OBJECT_NAME":"GOES 5","OBJECT_ID":"1981-049A","EPOCH":"2026-03-07T04:56:12.125760","MEAN_MOTION":1.00210913,"ECCENTRICITY":0.0004646,"INCLINATION":9.541,"RA_OF_ASC_NODE":316.3252,"ARG_OF_PERICENTER":337.6017,"MEAN_ANOMALY":215.7835,"EPHEMERIS_TYPE":0,"CLASSIFICATION_TYPE":"U","NORAD_CAT_ID":12472,"ELEMENT_SET_NO":999,"REV_AT_EPOCH":12182,"BSTAR":0,"MEAN_MOTION_DOT":-1.89e-6,"MEAN_MOTION_DDOT":0},{"OBJECT_NAME":"GOES 6","OBJECT_ID":"1983-041A","EPOCH":"2026-03-07T06:32:55.352832","MEAN_MOTION":1.00217901,"ECCENTRICITY":0.00023258,"INCLINATION":10.353,"RA_OF_ASC_NODE":321.8826,"ARG_OF_PERICENTER":307.7211,"MEAN_ANOMALY":243.5618,"EPHEMERIS_TYPE":0,"CLASSIFICATION_TYPE":"U","NORAD_CAT_ID":14050,"ELEMENT_SET_NO":999,"REV_AT_EPOCH":21499,"BSTAR":0,"MEAN_MOTION_DOT":-6.4e-7,"MEAN_MOTION_DDOT":0},{"OBJECT_NAME":"GOES 7","OBJECT_ID":"1987-022A","EPOCH":"2026-03-06T15:43:46.318080","MEAN_MOTION":0.99895451,"ECCENTRICITY":0.00039748,"INCLINATION":13.0188,"RA_OF_ASC_NODE":338.3588,"ARG_OF_PERICENTER":15.0271,"MEAN_ANOMALY":270.6719,"EPHEMERIS_TYPE":0,"CLASSIFICATION_TYPE":"U","NORAD_CAT_ID":17561,"ELEMENT_SET_NO":999,"REV_AT_EPOCH":12593,"BSTAR":0,"MEAN_MOTION_DOT":8.7e-7,"MEAN_MOTION_DDOT":0},{"OBJECT_NAME":"GOES 8","OBJECT_ID":"1994-022A","EPOCH":"2026-03-07T03:29:38.762592","MEAN_MOTION":0.9890811,"ECCENTRICITY":0.0005077,"INCLINATION":14.3429,"RA_OF_ASC_NODE":14.4497,"ARG_OF_PERICENTER":14.8921,"MEAN_ANOMALY":342.4477,"EPHEMERIS_TYPE":0,"CLASSIFICATION_TYPE":"U","NORAD_CAT_ID":23051,"ELEMENT_SET_NO":999,"REV_AT_EPOCH":12311,"BSTAR":0,"MEAN_MOTION_DOT":-2.83e-6,"MEAN_MOTION_DDOT":0},{"OBJECT_NAME":"GOES 9","OBJECT_ID":"1995-025A","EPOCH":"2026-03-07T07:59:54.274848","MEAN_MOTION":0.98798085,"ECCENTRICITY":0.0003558,"INCLINATION":13.8724,"RA_OF_ASC_NODE":15.2923,"ARG_OF_PERICENTER":210.6345,"MEAN_ANOMALY":323.4044,"EPHEMERIS_TYPE":0,"CLASSIFICATION_TYPE":"U","NORAD_CAT_ID":23581,"ELEMENT_SET_NO":999,"REV_AT_EPOCH":11175,"BSTAR":0,"MEAN_MOTION_DOT":-1.7e-7,"MEAN_MOTION_DDOT":0},{"OBJECT_NAME":"GOES 10","OBJECT_ID":"1997-019A","EPOCH":"2026-03-06T21:12:37.551744","MEAN_MOTION":0.99121823,"ECCENTRICITY":0.00308677,"INCLINATION":13.0069,"RA_OF_ASC_NODE":21.8289,"ARG_OF_PERICENTER":239.2562,"MEAN_ANOMALY":307.4625,"EPHEMERIS_TYPE":0,"CLASSIFICATION_TYPE":"U","NORAD_CAT_ID":24786,"ELEMENT_SET_NO":999,"REV_AT_EPOCH":10505,"BSTAR":0,"MEAN_MOTION_DOT":-1.7e-7,"MEAN_MOTION_DDOT":0},{"OBJECT_NAME":"GOES 11","OBJECT_ID":"2000-022A","EPOCH":"2026-03-06T22:06:02.431008","MEAN_MOTION":0.99040209,"ECCENTRICITY":0.00059015,"INCLINATION":11.5858,"RA_OF_ASC_NODE":47.4192,"ARG_OF_PERICENTER":255.1845,"MEAN_ANOMALY":106.43,"EPHEMERIS_TYPE":0,"CLASSIFICATION_TYPE":"U","NORAD_CAT_ID":26352,"ELEMENT_SET_NO":999,"REV_AT_EPOCH":5146,"BSTAR":0,"MEAN_MOTION_DOT":-5.2e-7,"MEAN_MOTION_DDOT":0},{"OBJECT_NAME":"GOES 12","OBJECT_ID":"2001-031A","EPOCH":"2026-03-07T08:02:38.649120","MEAN_MOTION":0.99136216,"ECCENTRICITY":0.00087581,"INCLINATION":12.0003,"RA_OF_ASC_NODE":38.1181,"ARG_OF_PERICENTER":296.3716,"MEAN_ANOMALY":239.4962,"EPHEMERIS_TYPE":0,"CLASSIFICATION_TYPE":"U","NORAD_CAT_ID":26871,"ELEMENT_SET_NO":999,"REV_AT_EPOCH":8975,"BSTAR":0,"MEAN_MOTION_DOT":-1.41e-6,"MEAN_MOTION_DDOT":0},{"OBJECT_NAME":"EWS-G1 (GOES 13)","OBJECT_ID":"2006-018A","EPOCH":"2026-03-07T04:40:38.680032","MEAN_MOTION":0.98785729,"ECCENTRICITY":0.0062004,"INCLINATION":4.2679,"RA_OF_ASC_NODE":77.6674,"ARG_OF_PERICENTER":273.3869,"MEAN_ANOMALY":117.9287,"EPHEMERIS_TYPE":0,"CLASSIFICATION_TYPE":"U","NORAD_CAT_ID":29155,"ELEMENT_SET_NO":999,"REV_AT_EPOCH":4224,"BSTAR":0,"MEAN_MOTION_DOT":4.7e-7,"MEAN_MOTION_DDOT":0},{"OBJECT_NAME":"GOES 14","OBJECT_ID":"2009-033A","EPOCH":"2026-03-07T11:26:38.610528","MEAN_MOTION":1.00100837,"ECCENTRICITY":0.00017547,"INCLINATION":1.4269,"RA_OF_ASC_NODE":84.3767,"ARG_OF_PERICENTER":259.2285,"MEAN_ANOMALY":193.1965,"EPHEMERIS_TYPE":0,"CLASSIFICATION_TYPE":"U","NORAD_CAT_ID":35491,"ELEMENT_SET_NO":999,"REV_AT_EPOCH":557,"BSTAR":0,"MEAN_MOTION_DOT":1.21e-6,"MEAN_MOTION_DDOT":0},{"OBJECT_NAME":"EWS-G2 (GOES 15)","OBJECT_ID":"2010-008A","EPOCH":"2026-03-07T13:49:21.952992","MEAN_MOTION":1.00270074,"ECCENTRICITY":0.00021659,"INCLINATION":1.0163,"RA_OF_ASC_NODE":85.0841,"ARG_OF_PERICENTER":16.8873,"MEAN_ANOMALY":334.1046,"EPHEMERIS_TYPE":0,"CLASSIFICATION_TYPE":"U","NORAD_CAT_ID":36411,"ELEMENT_SET_NO":999,"REV_AT_EPOCH":5861,"BSTAR":0,"MEAN_MOTION_DOT":2.0e-7,"MEAN_MOTION_DDOT":0},{"OBJECT_NAME":"GOES 16","OBJECT_ID":"2016-071A","EPOCH":"2026-03-07T08:10:14.882592","MEAN_MOTION":1.00272251,"ECCENTRICITY":0.0002356,"INCLINATION":0.138,"RA_OF_ASC_NODE":89.0757,"ARG_OF_PERICENTER":223.6591,"MEAN_ANOMALY":230.1708,"EPHEMERIS_TYPE":0,"CLASSIFICATION_TYPE":"U","NORAD_CAT_ID":41866,"ELEMENT_SET_NO":999,"REV_AT_EPOCH":3408,"BSTAR":0,"MEAN_MOTION_DOT":-9.3e-7,"MEAN_MOTION_DDOT":0},{"OBJECT_NAME":"GOES 17","OBJECT_ID":"2018-022A","EPOCH":"2026-03-07T08:26:38.710752","MEAN_MOTION":1.00270088,"ECCENTRICITY":0.00020829,"INCLINATION":0.6754,"RA_OF_ASC_NODE":87.4909,"ARG_OF_PERICENTER":226.7834,"MEAN_ANOMALY":247.9185,"EPHEMERIS_TYPE":0,"CLASSIFICATION_TYPE":"U","NORAD_CAT_ID":43226,"ELEMENT_SET_NO":999,"REV_AT_EPOCH":2940,"BSTAR":0,"MEAN_MOTION_DOT":-1.84e-6,"MEAN_MOTION_DDOT":0}]
