GOES 1 (SMS-C)          
1 08366U 75100A   26066.46572308  .00000013  00000+0  00000+0 0  9993
2 08366   4.8668 278.7140 0005386   0.2877 292.8035  1.00238048184044
GOES 2                  
1 10061U 77048A   26066.58725389 -.00000182  00000+0  00000+0 0  9991
2 10061   6.6616 294.1954 0013907  47.9051 140.2010  0.99395672 45260
GOES 3                  
1 10953U 78062A   26065.61835042 -.00000303  00000+0  00000+0 0  9994
2 10953   7.1339 300.0337 0002709 356.3745 241.7626  0.99365874127515
GOES 4                  
1 11964U 80074A   26065.99726164 -.00000194  00000+0  00000+0 0  9996
2 11964   8.2066 303.7135 0032137 103.0985  54.8046  0.99230101126426
GOES 5                  
1 12472U 81049A   26066.20569590 -.00000189  00000+0  00000+0 0  9991
2 12472   9.5410 316.3252 0004646 337.6017 215.7835  1.00210913121828
GOES 6                  
1 14050U 83041A   26066.27286288 -.00000064  00000+0  00000+0 0  9998
2 14050  10.3530 321.8826 0002325 307.7211 243.5618  1.00217901214992
GOES 7                  
1 17561U 87022A   26065.65539720  .00000087  00000+0  00000+0 0  9998
2 17561  13.0188 338.3588 0003974  15.0271 270.6719  0.99895451125932
GOES 8                  
1 23051U 94022A   26066.14558753 -.00000283  00000+0  00000+0 0  9998
2 23051  14.3429  14.4497 0005077  14.8921 342.4477  0.98908110123114
GOES 9                  
1 23581U 95025A   26066.33326707 -.00000017  00000+0  00000+0 0  9998
2 23581  13.8724  15.2923 0003558 210.6345 323.4044  0.98798085111759
GOES 10                 
1 24786U 97019A   26065.88376796 -.00000017  00000+0  00000+0 0  9993
2 24786  13.0069  21.8289 0030867 239.2562 307.4625  0.99121823105054
GOES 11                 
1 26352U 00022A   26065.92086147 -.00000052  00000+0  00000+0 0  9994
2 26352  11.5858  47.4192 0005901 255.1845 106.4300  0.99040209 51463
GOES 12                 
1 26871U 01031A   26066.33516955 -.00000141  00000+0  00000+0 0  9991
2 26871  12.0003  38.1181 0008758 296.3716 239.4962  0.99136216 89757
EWS-G1 (GOES 13)        
1 29155U 06018A   26066.19489213  .00000047  00000+0  00000+0 0  9993
2 29155   4.2679  77.6674 0062004 273.3869 117.9287  0.98785729 42241
GOES 14                 
1 35491U 09033A   26066.47683577  .00000121  00000+0  00000+0 0  9996
2 35491   1.4269  84.3767 0001754 259.2285 193.1965  1.00100837  5572
EWS-G2 (GOES 15)        
1 36411U 10008A   26066.57594853  .00000020  00000+0  00000+0 0  9990
2 36411   1.0163  85.0841 0002165  16.8873 334.1046  1.00270074 58613
GOES 16                 
1 41866U 16071A   26066.34045003 -.00000093  00000+0  00000+0 0  9990
2 41866   0.1380  89.0757 0002356 223.6591 230.1708  1.00272251 34085
GOES 17                 
1 43226U 18022A   26066.35183693 -.00000184  00000+0  00000+0 0  9990
2 43226   0.6754  87.4909 0002082 226.7834 247.9185  1.00270088 29409
